city,lat,lng,admin_name
Hồ Chí Minh,10.8167,106.6333,Hồ Chí Minh
Hà Nội,21.0245,105.8412,Hà Nội
Hải Phòng,20.8,106.6667,Hải Phòng
Cần Thơ,10.0333,105.7833,Cần Thơ
Biên Hòa,10.9277,106.8681,Đồng Nai
Thủ Đức,10.8199,106.7909,Hồ Chí Minh
Quảng Hà,16.06,108.25,Quảng Nam
Bắc Ninh,21.1861,106.0763,Bắc Ninh
Hải Dương,20.9399,106.3309,Hải Dương
Vinh,18.6733,105.6922,Nghệ An
Huế,16.4637,107.5908,Thừa Thiên-Huế
Thanh Hóa,19.8075,105.7764,Thanh Hóa
Nha Trang,12.2495,109.1908,Khánh Hòa
Nam Định,20.42,106.1683,Nam Định
Buôn Ma Thuột,12.6667,108.05,Đắk Lắk
Thái Nguyên,21.6,105.85,Thái Nguyên
Vũng Tàu,10.4042,107.1417,Bà Rịa-Vũng Tàu
Cà Mau,9.1833,105.15,Cà Mau
Quy Nhơn,13.7696,109.2314,Bình Định
Sóc Trăng,9.6,105.9719,Sóc Trăng
Long Xuyên,10.3686,105.4234,An Giang
Việt Trì,21.3136,105.3947,Phú Thọ
Thái Bình,20.4461,106.3422,Thái Bình
Quảng Ngãi,15.1206,108.7922,Quảng Ngãi
Ấp Đa Lợi,11.9304,108.42,Lâm Đồng
Rạch Giá,10.0125,105.0808,Kiến Giang
Thủ Dầu Một,11.0042,106.6583,Bình Dương
Tuy Hòa,13.0869,109.3086,Phú Yên
Bạc Liêu,9.2833,105.7167,Bạc Liêu
Sa Đéc,10.3105,105.7397,Đồng Tháp
Phan Thiết,10.9375,108.1583,Bình Thuận
Sơn Tây,21.1382,105.505,Hà Nội
Phan Rang-Tháp Chàm,11.5643,108.9886,Ninh Thuận
Hạ Long,20.9514,107.0852,Quảng Ninh
Hà Tĩnh,18.3431,105.9058,Hà Tĩnh
Đồng Hới,17.4833,106.6,Quảng Bình
Châu Đốc,10.7,105.1167,An Giang
Cẩm Phả,21.0094,107.2728,Quảng Ninh
Cao Lãnh,10.4603,105.6331,Đồng Tháp
Lạng Sơn,21.8478,106.7578,Lạng Sơn
Cam Ranh,11.902,109.2207,Khánh Hòa
Pleiku,13.9715,108.0147,Gia Lai
Tân An,10.5322,106.4042,Long An
Trà Vinh,9.9369,106.3411,Trà Vinh
Ninh Bình,20.2539,105.975,Ninh Bình
Tây Ninh,11.3131,106.0963,Tây Ninh
Cam Ranh,11.9136,109.1369,Khánh Hòa
Mỹ Tho,10.35,106.35,Tiền Giang
Hội An,15.8777,108.3327,Quảng Nam
Hòa Bình,20.8175,105.3375,Hòa Bình
Mang La,14.3838,107.9833,Kon Tum
Vĩnh Long,10.255,105.9753,Vĩnh Long
Vị Thanh,9.7833,105.4708,Hậu Giang
Yên Bái,21.7,104.8667,Yên Bái
Dĩ An,10.9039,106.7679,Bình Dương
Quảng Trị,16.7504,107.2,Quảng Trị
Phú Quốc,10.2289,103.9572,Kiến Giang
Lào Cai,22.4194,103.995,Lào Cai
Bến Tre,10.2333,106.3833,Bến Tre
Bắc Giang,21.2731,106.1947,Bắc Giang
Hà Tiên,10.3833,104.4833,Kiến Giang
Cao Bằng,22.6731,106.25,Cao Bằng
Bình Long,11.6504,106.6,Bình Phước
Hà Giang,22.8233,104.9836,Hà Giang
Tuyên Quang,21.8281,105.2156,Tuyên Quang
Bắc Kạn,22.1514,105.8377,Bắc Kạn
Sơn La,21.327,103.9141,Sơn La
Đông Hà,16.8056,107.0906,Quảng Trị
Quận Mười Một,10.7638,106.6436,Hồ Chí Minh
Quận Năm,10.7557,106.6675,Hồ Chí Minh
Quận Mười,10.7682,106.6663,Hồ Chí Minh
Quận Phú Nhuận,10.7948,106.6763,Hồ Chí Minh
Đống Đa,21.0201,105.831,Hà Nội
Quận Sáu,10.7468,106.649,Hồ Chí Minh
Hai BàTrưng,21.0134,105.8477,Hà Nội
Hoàn Kiếm,21.0286,105.8506,Hà Nội
Quận Ba,10.7749,106.6863,Hồ Chí Minh
Quận Một,10.7807,106.6994,Hồ Chí Minh
Cầu Giấy,21.0323,105.8007,Hà Nội
Quận Bốn,10.7668,106.7057,Hồ Chí Minh
Quận Tân Phú,10.7838,106.637,Hồ Chí Minh
Quận Bình Thạnh,10.8033,106.6967,Hồ Chí Minh
Ba Đình,21.0341,105.8145,Hà Nội
Thanh Khê,16.0706,108.191,Đà Nẵng
Thanh Xuân,20.9947,105.7998,Hà Nội
Đà Nẵng,16.0748,108.224,Đà Nẵng
Quận Bảy,10.7118,106.7364,Hồ Chí Minh
Tây Hồ,21.0689,105.8105,Hà Nội
Hà Đông,20.9714,105.7788,Hà Nội
Lái Thiêu,10.9051,106.6995,Bình Dương
Cầu Diễn,21.0393,105.7666,Hà Nội
Hưng Yên,20.6464,106.0511,Hưng Yên
Quận Hai,10.7916,106.7495,Hồ Chí Minh
Hóc Môn,10.8891,106.5953,Hồ Chí Minh
Cẩm Lệ,16.0177,108.2038,Đà Nẵng
Văn Điển,20.9463,105.845,Hà Nội
Quận Chín,10.8397,106.7709,Hồ Chí Minh
Sơn Trà,16.0607,108.2326,Đà Nẵng
Trâu Quỳ,21.0195,105.9369,Hà Nội
Phủ Lý,20.5453,105.9122,Hà Nam
Trôi,21.0695,105.7065,Hà Nội
Phùng,21.089,105.659,Hà Nội
Đông Anh,21.1396,105.8493,Hà Nội
Tân Túc,10.6954,106.5913,Hồ Chí Minh
Bình Thủy,10.0743,105.7397,Cần Thơ
Vĩnh Yên,21.31,105.5967,Vĩnh Phúc
Tam Kỳ,15.5667,108.4833,Quảng Nam
Điện Biên Phủ,21.3833,103.0169,Điện Biên
Đồng Xoài,11.5349,106.8832,Bình Phước
Đà Lạt,11.9359,108.4429,Lâm Đồng
Lai Châu,22.3991,103.4393,Lai Châu
Kon Tum,14.3436,107.9789,Kon Tum
Gia Nghĩa,12.0042,107.6907,Đắk Nông
Ngũ Hành Sơn,16.0162,108.2534,Đà Nẵng
Thường Tín,20.8687,105.8612,Hà Nội
Thị Trấn Long Điền,10.4856,107.2123,Bà Rịa-Vũng Tàu
Liên Chiểu,16.0727,108.1581,Đà Nẵng
Cái Răng,10.0009,105.751,Cần Thơ
Hòa Thành,11.287,106.1294,Tây Ninh
Lý Sơn,15.372,109.1189,Quảng Ngãi
Phúc Thọ,21.1034,105.5455,Hà Nội
An Dương,20.8638,106.6133,Hải Phòng
Mê Linh,21.1831,105.7204,Hà Nội
Như Quỳnh,20.9817,105.9849,Hưng Yên
Nhà Bè,10.6967,106.7403,Hồ Chí Minh
Liên Quan,21.0572,105.5792,Hà Nội
Yên Mỹ,20.8856,106.0356,Hưng Yên
Khoái Châu,20.8391,105.9776,Hưng Yên
Phú Quý,10.5166,108.9329,Bình Thuận
Kim Bài,20.8526,105.7696,Hà Nội
Văn Giang,20.943,105.9312,Hưng Yên
Chúc Sơn,20.9237,105.7015,Hà Nội
Quốc Oai,20.9902,105.6409,Hà Nội
Xuân Trường,20.2923,106.3327,Nam Định
Hồ,21.0631,106.0857,Bắc Ninh
Núi Đèo,20.9157,106.6744,Hải Phòng
Yên Lạc,21.2365,105.573,Vĩnh Phúc
Vĩnh Tường,21.2165,105.5125,Vĩnh Phúc
Núi Đối,20.7508,106.6689,Hải Phòng
Phú Xuyên,20.7455,105.9136,Hà Nội
An Lão,20.8229,106.5558,Hải Phòng
Cổ Lễ,20.3234,106.2658,Nam Định
Hưng Hà,20.5904,106.2245,Thái Bình
Bẩn Yên Nhân,20.9365,106.0571,Hưng Yên
Lim,21.1439,106.0202,Bắc Ninh
Ô Môn,10.1097,105.6232,Cần Thơ
Nam Giang,20.3332,106.1775,Nam Định
Vũ Thư,20.4367,106.2912,Thái Bình
Lai Cách,20.9325,106.2476,Hải Dương
Hậu Lộc,19.9144,105.8861,Thanh Hóa
Đông Hưng,20.5565,106.3553,Thái Bình
Chờ,21.1949,105.9547,Bắc Ninh
Bút Sơn,19.858,105.8548,Thanh Hóa
Quảng Xương,19.7295,105.7827,Thanh Hóa
Quỳnh Côi,20.6619,106.3274,Thái Bình
Vân Đình,20.7351,105.7724,Hà Nội
Lương Bằng,20.74,106.06,Hưng Yên
Gia Lộc,20.8678,106.3,Hải Dương
Thốt Nốt,10.2721,105.5338,Cần Thơ
Yên Định,20.2015,106.2958,Nam Định
Phú Thái,20.9628,106.5095,Hải Dương
Kẻ Sặt,20.9101,106.1477,Hải Dương
Sóc Sơn,21.2578,105.8489,Hà Nội
Thanh Nê,20.3881,106.4383,Thái Bình
Ninh Giang,20.7308,106.3979,Hải Dương
Thắng,21.3551,105.9834,Bắc Giang
Vĩnh Trụ,20.5602,106.0281,Hà Nam
Vạn Hà,19.8866,105.6788,Thanh Hóa
Chợ Mới,10.5512,105.4044,An Giang
Vĩnh Bảo,20.6908,106.4806,Hải Phòng
Ân Thi,20.8184,106.0912,Hưng Yên
Kinh Môn,20.9896,106.5551,Hải Dương
Thanh Miện,20.7871,106.2462,Hải Dương
Đại Nghĩa,20.6867,105.7447,Hà Nội
Thanh Hà,20.8982,106.4261,Hải Dương
Tân Châu,10.7983,105.2389,An Giang
Bình Minh,10.0682,105.8222,Vĩnh Long
Củ Chi,10.9733,106.4932,Hồ Chí Minh
Bích Động,21.2742,106.1007,Bắc Giang
Yên Ninh,20.184,106.0612,Ninh Bình
Điện Bàn,15.8885,108.2545,Quảng Nam
Thứa,21.0194,106.2004,Bắc Ninh
Gia Bình,21.0594,106.1747,Bắc Ninh
Tân Hiệp,10.449,106.3439,Tiền Giang
Rừng Thông,19.8191,105.7328,Thanh Hóa
Tứ Kỳ,20.8191,106.4066,Hải Dương
Ngô Đồng,20.283,106.4435,Nam Định
Mỹ Lộc,20.4411,106.1024,Nam Định
Bình Mỹ,20.4912,106.0095,Hà Nam
Lâm,20.3277,106.0121,Nam Định
Hòa Mạc,20.6417,105.989,Hà Nam
Diễn Châu,18.9765,105.6003,Nghệ An
Phong Điền,9.9975,105.6673,Cần Thơ
Vương,20.7011,106.1175,Hưng Yên
Cần Đước,10.5097,106.6031,Long An
Diêm Điền,20.5583,106.5688,Thái Bình
Tiên Lãng,20.7246,106.5539,Hải Phòng
Nam Sách,20.9921,106.3361,Hải Dương
Nga Sơn,20.0072,105.9704,Thanh Hóa
Phát Diệm,20.0905,106.0832,Ninh Bình
Cần Giuộc,10.6086,106.6713,Long An
An Phú,10.8159,105.0904,An Giang
Trảng Bom,10.9536,107.0059,Đồng Nai
Phú Vang,16.4391,107.7144,Thừa Thiên-Huế
Trần Cao,20.7295,106.1797,Hưng Yên
Lấp Vò,10.3616,105.5192,Đồng Tháp
Gôi,20.3334,106.0783,Nam Định
Hợp Hòa,21.3753,105.5426,Vĩnh Phúc
Phố Mới,21.1533,106.1516,Bắc Ninh
Vôi,21.3552,106.2615,Bắc Giang
Chợ Gạo,10.3498,106.4634,Tiền Giang
Lâm Thao,21.3201,105.2916,Phú Thọ
Liễu Đề,20.2209,106.1875,Nam Định
Tư Nghĩa,15.0845,108.826,Quảng Ngãi
Long Hồ,10.1928,106.0123,Vĩnh Long
Long Khánh,10.9265,107.2478,Đồng Nai
Cao Thượng,21.3871,106.1293,Bắc Giang
Neo,21.2005,106.2474,Bắc Giang
Châu Thành,10.3012,106.357,Bến Tre
An Nhơn,13.8858,109.1082,Bình Định
Phú Mỹ,10.5924,105.3557,An Giang
Chợ Lách,10.2603,106.1189,Bến Tre
Yên Thịnh,20.1625,106.007,Ninh Bình
Phúc Yên,21.237,105.7048,Vĩnh Phúc
Tây Đằng,21.1981,105.4222,Hà Nội
Lai Vung,10.287,105.6617,Đồng Tháp
Phú Thọ,21.3996,105.2222,Phú Thọ
Thanh Lưu,20.474,105.9527,Hà Nam
Quán Lào,19.9715,105.6511,Thanh Hóa
Thọ Xuân,19.9313,105.5218,Thanh Hóa
Bảo Lộc,11.548,107.8077,Lâm Đồng
Thống Nhất,10.9505,107.1457,Đồng Nai
Hương Canh,21.2788,105.647,Vĩnh Phúc
Mỏ Cày,10.1331,106.3352,Bến Tre
Hưng Nguyên,18.6716,105.6288,Nghệ An
Ngã Bảy,9.8137,105.821,Hậu Giang
Tầm Vu,10.4411,106.4679,Long An
Vĩnh Bình,10.345,106.5806,Tiền Giang
Tuy Phước,13.8274,109.1665,Bình Định
Quế,20.5806,105.8727,Hà Nam
Triệu Sơn,19.8191,105.6039,Thanh Hóa
Me,20.347,105.8361,Ninh Bình
Lập Thạch,21.4154,105.4608,Vĩnh Phúc
Cái Tàu Hạ,10.2597,105.8704,Đồng Tháp
Sịa,16.5745,107.5107,Thừa Thiên-Huế
Thiên Tồn,20.299,105.952,Ninh Bình
Nông Cống,19.624,105.6494,Thanh Hóa
Tân Trụ,10.5127,106.5076,Long An
Long Thành,10.7891,106.9503,Đồng Nai
Quảng Yên,20.9421,106.8027,Quảng Ninh
Mộ Đức,14.9551,108.8859,Quảng Ngãi
Hương Trà,16.5254,107.4755,Thừa Thiên-Huế
Cái Nhum,10.1741,106.1105,Vĩnh Long
Cầu Giát,19.146,105.6309,Nghệ An
Vĩnh Lộc,20.0544,105.6157,Thanh Hóa
Sơn Tịnh,15.1586,108.7958,Quảng Ngãi
Một Ngàn,9.924,105.6296,Hậu Giang
Ba Tri,10.0443,106.5902,Bến Tre
Giồng Trôm,10.1502,106.5061,Bến Tre
Cái Dầu,10.5698,105.2295,An Giang
Tân Hòa,10.3191,106.7113,Tiền Giang
Minh Lương,9.9025,105.1595,Kiến Giang
Hương Sơn,21.4601,105.9781,Thái Nguyên
Vũng Liêm,10.0958,106.1855,Vĩnh Long
Ngã Sáu,9.923,105.8054,Hậu Giang
Bến Lức,10.6364,106.491,Long An
Tam Điệp,20.1487,105.8985,Ninh Bình
Đô Lương,18.8985,105.308,Nghệ An
Trà Ôn,9.9626,105.9217,Vĩnh Long
Tam Bình,10.0481,106.0002,Vĩnh Long
Nam Đàn,18.698,105.4988,Nghệ An
Hậu Nghĩa,10.8943,106.3969,Long An
Nhơn Trạch,10.7229,106.8834,Đồng Nai
Kế Sách,9.7674,105.9857,Sóc Trăng
Tân Uyên,11.0609,106.799,Bình Dương
Đức Thọ,18.5396,105.583,Hà Tĩnh
Gò Dầu,11.0885,106.2635,Tây Ninh
Quán Hành,18.7793,105.646,Nghệ An
Trà Cú,9.6977,106.2583,Trà Vinh
Thới Lai,10.0652,105.5586,Cần Thơ
Bồng Sơn,14.4291,109.0156,Bình Định
Cầu Kè,9.8724,106.055,Trà Vinh
Cờ Đỏ,10.0938,105.4292,Cần Thơ
Tiểu Cần,9.8117,106.1907,Trà Vinh
An Châu,10.4456,105.3862,An Giang
Thanh Bình,10.5619,105.4841,Đồng Tháp
Yên Thành,18.9986,105.4712,Nghệ An
Trảng Bàng,11.0299,106.3575,Tây Ninh
Tĩnh Gia,19.4464,105.7786,Thanh Hóa
Long Phú,9.6102,106.1188,Sóc Trăng
Thị Trấn Phú Mỹ,10.6036,107.054,Bà Rịa-Vũng Tàu
Nghi Xuân,18.6621,105.7557,Hà Tĩnh
Châu Thành,9.8699,106.3494,Trà Vinh
Châu Thành,9.7007,105.902,Sóc Trăng
Vĩnh Thạnh,10.2226,105.3984,Cần Thơ
Hà Lam,15.7387,108.3506,Quảng Nam
Thanh Thủy,21.1755,105.2839,Phú Thọ
Mỹ Thọ,10.4427,105.6951,Đồng Tháp
Thị Trấn Đất Đỏ,10.4909,107.2701,Bà Rịa-Vũng Tàu
Nghèn,18.4512,105.7797,Hà Tĩnh
Duy Xuyên,15.829,108.2596,Quảng Nam
Thị Trấn Giá Rai,9.2379,105.4552,Bạc Liêu
Phong Châu,21.4068,105.3123,Phú Thọ
Diên Khánh,12.2549,109.0933,Khánh Hòa
Nàng Mau,9.7513,105.5345,Hậu Giang
Mỹ Xuyên,9.5601,105.9898,Sóc Trăng
Núi Sập,10.2648,105.2668,An Giang
Nghĩa Hành,15.0457,108.7772,Quảng Ngãi
Đức Phổ,14.8136,108.9593,Quảng Ngãi
Thạch Hà,18.3679,105.8612,Hà Tĩnh
Thị Trấn Ngải Giao,10.6471,107.2458,Bà Rịa-Vũng Tàu
Thanh Ba,21.4988,105.141,Phú Thọ
Bình Sơn,15.2978,108.7612,Quảng Ngãi
Khánh Hải,11.591,109.0405,Ninh Thuận
Vĩnh Châu,9.3244,105.9801,Sóc Trăng
Bình Đại,10.1896,106.6915,Bến Tre
Sông Thao,21.4213,105.1337,Phú Thọ
Cù Lao Dung,9.6731,106.1487,Sóc Trăng
Phụng Hiệp,9.7797,105.7338,Hậu Giang
Tân Hiệp,10.1171,105.2858,Kiến Giang
Giồng Riềng,9.9097,105.3143,Kiến Giang
Phước An,12.713,108.3015,Đắk Lắk
Long Mỹ,9.6814,105.5723,Hậu Giang
Nhà Bàng,10.6177,105.0034,An Giang
Hưng Hóa,21.2549,105.2953,Phú Thọ
Ba Đồn,17.7535,106.4235,Quảng Bình
Thạnh Phú,9.9483,106.5163,Bến Tre
Cái Nước,8.9423,105.0141,Cà Mau
Thị Trấn Hòa Bình,9.2847,105.6292,Bạc Liêu
Gò Quao,9.7332,105.2739,Kiến Giang
Phú Ninh,15.5547,108.4114,Quảng Nam
An Biên,9.8153,105.0637,Kiến Giang
Đồi Ngô,21.3063,106.3867,Bắc Giang
Chí Thạnh,13.3084,109.2152,Phú Yên
Quế Sơn,15.6736,108.2201,Quảng Nam
Phù Mỹ,14.1718,109.0489,Bình Định
Gia Ray,10.9261,107.4017,Đồng Nai
Nho Quan,20.3228,105.7519,Ninh Bình
Thị Trấn Cao Lộc,21.8665,106.7683,Lạng Sơn
Thủ Thừa,10.6023,106.4021,Long An
Phú Lộc,9.4284,105.7411,Sóc Trăng
Cầu Gồ,21.4768,106.1265,Bắc Giang
Thị Trấn Phước Long,9.4375,105.4622,Bạc Liêu
Huỳnh Hữu Nghĩa,9.6354,105.8117,Sóc Trăng
Sa Rài,10.8702,105.4658,Đồng Tháp
Thị Trấn Gành Hào,9.0318,105.4211,Bạc Liêu
Đu,21.7385,105.7039,Thái Nguyên
Núi Thành,15.4319,108.6595,Quảng Nam
Phù Cát,14.0032,109.058,Bình Định
Ái Tử,16.7689,107.165,Quảng Trị
Bến Cầu,11.1105,106.1792,Tây Ninh
Tam Đảo,21.3932,105.6144,Vĩnh Phúc
Trần Văn Thời,9.0771,104.9791,Cà Mau
Thị Trấn Ngan Dừa,9.567,105.4502,Bạc Liêu
Đại Lộc,15.8821,108.1209,Quảng Nam
Duyên Hải,9.635,106.4924,Trà Vinh
Ngọc Lặc,20.0919,105.3676,Thanh Hóa
Buôn Trấp,12.4848,108.0298,Đắk Lắk
Cái Đôi Vàm,8.8571,104.812,Cà Mau
Vạn Giã,12.692,109.2207,Khánh Hòa
Vĩnh Thuận,9.508,105.2575,Kiến Giang
Võ Xu,11.1869,107.5603,Bình Thuận
Thị Trấn Phước Bửu,10.5347,107.402,Bà Rịa-Vũng Tàu
Kim Tân,20.1305,105.6745,Thanh Hóa
Phước Vĩnh,11.2947,106.7953,Bình Dương
Chùa Hang,21.6238,105.8417,Thái Nguyên
Cẩm Thủy,20.2087,105.4695,Thanh Hóa
Châu Thành,11.3117,106.0295,Tây Ninh
Dương Minh Châu,11.3841,106.2308,Tây Ninh
Dầu Tiếng,11.2741,106.3588,Bình Dương
Đoan Hùng,21.6225,105.1846,Phú Thọ
Tân Phú,11.2722,107.4365,Đồng Nai
Chợ Mới,21.8837,105.7728,Bắc Kạn
Đầm Dơi,8.9921,105.196,Cà Mau
Tràm Chim,10.67,105.5647,Đồng Tháp
Vụ Bản,20.4642,105.4435,Hòa Bình
Sơn Dương,21.6968,105.399,Tuyên Quang
Cẩm Xuyên,18.2503,106.0013,Hà Tĩnh
Phú Lộc,16.2804,107.859,Thừa Thiên-Huế
Tri Tôn,10.4202,105.0007,An Giang
Ninh Hòa,12.4919,109.125,Khánh Hòa
Sông Cầu,13.4556,109.2235,Phú Yên
Quảng Phú,12.8196,108.0774,Đắk Lắk
Thới Bình,9.3558,105.0993,Cà Mau
Krông Năng,12.9517,108.3443,Đắk Lắk
Phước Dân,11.527,108.93,Ninh Thuận
Hàng Trạm,20.3947,105.6224,Hòa Bình
Thứ Mười Một,9.6114,104.9465,Kiến Giang
Hạ Hòa,21.563,105.0051,Phú Thọ
Bo,20.6726,105.5362,Hòa Bình
Móng Cái,21.5298,107.968,Quảng Ninh
Chũ,21.3738,106.5665,Bắc Giang
Đưc Trọng,11.7356,108.3733,Lâm Đồng
Chơn Thành,11.4282,106.6354,Bình Phước
Liên Hương,11.2276,108.7237,Bình Thuận
Lương Sơn,20.8715,105.5257,Hòa Bình
Thanh Chương,18.7788,105.3336,Nghệ An
Tân Thạnh,10.6067,106.0471,Long An
Hải Lăng,16.6935,107.2512,Quảng Trị
Hòa Vang,15.9876,108.1389,Đà Nẵng
Tân Kỳ,19.0476,105.2681,Nghệ An
Phú Phong,13.9096,108.919,Bình Định
Chợ Chu,21.9072,105.6422,Thái Nguyên
Kỳ Sơn,20.8867,105.3524,Hòa Bình
Chi Nê,20.4906,105.778,Hòa Bình
Mỹ Phước,10.4771,106.1926,Tiền Giang
Cam Lâm,12.054,109.16,Khánh Hòa
Thạnh Mỹ,11.7617,108.4947,Lâm Đồng
Hòn Đất,10.1846,104.9296,Kiến Giang
Cao Phong,20.7045,105.3206,Hòa Bình
Anh Sơn,18.9325,105.076,Nghệ An
Kỳ Anh,18.0624,106.2983,Hà Tĩnh
Cần Giờ,10.4111,106.9547,Hồ Chí Minh
Gio Linh,16.9248,107.0844,Quảng Trị
Đắk Mil,12.4496,107.6224,Đắk Nông
Bù Đốp,11.9549,106.8002,Bình Phước
Đồng Nai,11.5798,107.3652,Lâm Đồng
Thị Trấn Đồng Văn,23.2784,105.3629,Hà Giang
Đinh Văn,11.7862,108.2428,Lâm Đồng
Mường Khến,20.6144,105.2795,Hòa Bình
Tiên Phước,15.4882,108.3074,Quảng Nam
Ea T’ling,12.589,107.8958,Đắk Nông
Ea Kar,12.8082,108.449,Đắk Lắk
Lộc Ninh,11.8448,106.5907,Bình Phước
Cát Bà,20.7278,107.0482,Hải Phòng
Năm Căn,8.759,104.9929,Cà Mau
Thị Trấn Phố Lu,22.3192,104.1872,Lào Cai
Vĩnh An,11.089,107.0352,Đồng Nai
Đông Thành,10.8922,106.3061,Long An
Chư Sê,13.6915,108.0802,Gia Lai
A Yun Pa,13.4003,108.435,Gia Lai
Bến Sung,19.6314,105.5782,Thanh Hóa
Hữu Lũng,21.5056,106.3446,Lạng Sơn
Hồ Xá,17.0684,107.0052,Quảng Trị
Tân Châu,11.552,106.1725,Tây Ninh
U Minh,9.4129,104.9735,Cà Mau
Thị Trấn Yên Thế,22.1107,104.7675,Yên Bái
Si Ma Cai,22.6951,104.2786,Lào Cai
Vĩnh Hưng,10.8907,105.7849,Long An
Thị Trấn Mèo Vạc,23.1641,105.4099,Hà Giang
Cam Lộ,16.808,106.9941,Quảng Trị
Ma Lâm,11.073,108.13,Bình Thuận
Ngọc Hiển,8.6572,105.0602,Cà Mau
Thị Trấn Tân Yên,22.0655,105.0345,Tuyên Quang
Thanh Sơn,21.1987,105.1789,Phú Thọ
Sơn Thịnh,21.5625,104.5948,Yên Bái
Quỳ Hợp,19.3255,105.1825,Nghệ An
Yên Lập,21.347,105.0574,Phú Thọ
Quảng Hà,21.4506,107.7559,Quảng Ninh
Cổ Phúc,21.7558,104.8277,Yên Bái
Cành Nàng,20.348,105.2288,Thanh Hóa
Thạnh Hóa,10.6574,106.1808,Long An
Đăk Đoa,13.995,108.1121,Gia Lai
Kiến Đức,11.9922,107.5109,Đắk Nông
Tân Biên,11.5444,106.0116,Tây Ninh
Phong Thổ,22.5443,103.2978,Lai Châu
Hoài Ân,14.3635,108.9648,Bình Định
Đức Phong,11.8135,107.2443,Bình Phước
Thị Trấn Yên Minh,23.1179,105.1416,Hà Giang
Lũng Hồ,22.9848,105.2398,Hà Giang
Hát Lót,21.1973,104.106,Sơn La
Thị Trấn Vĩnh Tuy,22.2744,104.8909,Hà Giang
Thị Trấn Việt Quang,22.4151,104.8068,Hà Giang
Thị Trấn Thuận Châu,21.4385,103.69,Sơn La
Đồng Mỏ,21.657,106.5783,Lạng Sơn
Di Linh,11.5815,108.0764,Lâm Đồng
Kiến Giang,17.2233,106.7901,Quảng Bình
Thị Trấn Quảng Uyên,22.695,106.4424,Cao Bằng
Thị Trấn Trùng Khánh,22.8351,106.525,Cao Bằng
Mường Ảng,21.5199,103.2229,Điện Biên
Phố Châu,18.5133,105.4241,Hà Tĩnh
Thị Trấn Vinh Quang,22.7408,104.6796,Hà Giang
Tân Phú,11.4512,106.8681,Bình Phước
Cô Tô,20.9727,107.7658,Quảng Ninh
Than Uyên,21.9591,103.88,Lai Châu
Chư Ty,13.8051,107.6961,Gia Lai
Tân Hưng,10.8348,105.6614,Long An
Văn Quan,21.8652,106.5393,Lạng Sơn
Phù Yên,21.2633,104.6444,Sơn La
Ea Drăng,13.2045,108.2103,Đắk Lắk
Mai Châu,20.6615,105.0824,Hòa Bình
Thuận Nam,10.85,107.8786,Bình Thuận
Thị Trấn Nước Hai,22.7374,106.1522,Cao Bằng
Tân Sơn,11.7752,108.7848,Ninh Thuận
Đắk Mâm,12.4579,107.8625,Đắk Nông
Thị Trấn Vĩnh Lộc,22.1436,105.2719,Tuyên Quang
Huyện Chiêm Hóa,22.1441,105.2728,Tuyên Quang
Phong Điền,16.5832,107.3644,Thừa Thiên-Huế
Bắc Sơn,21.9,106.3208,Lạng Sơn
Thị Trấn Phố Ràng,22.2343,104.4764,Lào Cai
Thị Trấn Mường Khương,22.7614,104.1216,Lào Cai
Sơn Hà,15.0419,108.4697,Quảng Ngãi
Đạ Tẻh,11.5115,107.4909,Lâm Đồng
Thị Trấn Tà Lùng,22.4979,106.5669,Cao Bằng
Tánh Linh,11.0842,107.6809,Bình Thuận
Thị Trấn Na Sầm,22.0564,106.6151,Lạng Sơn
Yên Châu,21.0458,104.301,Sơn La
Yên Cát,19.6633,105.4285,Thanh Hóa
Thị Trấn Tam Sơn,23.0674,104.9893,Hà Giang
Hoàn Lão,17.5844,106.5342,Quảng Bình
Đắk Song,12.2552,107.6092,Đắk Nông
Đắk Hà,14.5135,107.921,Kon Tum
Đắk Tô,14.6609,107.8389,Kon Tum
Tam Đường,22.3181,103.6262,Lai Châu
Sông Mã,21.0509,103.7499,Sơn La
Mộc Châu,20.852,104.6218,Sơn La
Thị Trấn Hùng Quốc,22.829,106.3234,Cao Bằng
Phú Hòa,14.1,107.969,Gia Lai
Lộc Thắng,11.6284,107.8351,Lâm Đồng
An Châu,21.3346,106.8493,Bắc Giang
Thị Trấn Tủa Chùa,21.8577,103.3426,Điện Biên
Sa Pa,22.3356,103.8419,Lào Cai
Lộc Bình,21.7587,106.9233,Lạng Sơn
Yên Bình,22.4099,104.5795,Hà Giang
Bắc Hà,22.5391,104.2931,Lào Cai
Quán Hàu,17.4044,106.6407,Quảng Bình
Hiệp Đức,15.5822,108.1142,Quảng Nam
Krông Kmar,12.5045,108.3329,Đắk Lắk
Hương Khê,18.1767,105.7002,Hà Tĩnh
Lang Chánh,20.1561,105.2422,Thanh Hóa
Thị Trấn Tuần Giáo,21.5899,103.4218,Điện Biên
Ma Đa Gui,11.387,107.5351,Lâm Đồng
Thường Xuân,19.9029,105.3472,Thanh Hóa
Thị Trấn Xuân Hoà,22.9024,106.0774,Cao Bằng
Thị Trấn Việt Lâm,22.6249,104.9599,Hà Giang
Thị Trấn Vị Xuyên,22.6676,104.9819,Hà Giang
Ít Ong,21.5175,104.027,Sơn La
Minh Long,14.9322,108.7033,Quảng Ngãi
Đồng Lê,17.8839,106.0254,Quảng Bình
Côn Đảo,8.6833,106.6063,Bà Rịa-Vũng Tàu
Đà Bắc,20.8771,105.2542,Hòa Bình
Trà Bồng,15.2557,108.5172,Quảng Ngãi
Chư Prông,13.7568,107.8862,Gia Lai
Chợ Rã,22.4511,105.7191,Bắc Kạn
Bát Xát,22.5431,103.8899,Lào Cai
Ia Pa,13.5336,108.4553,Gia Lai
Chợ Lầu,11.2216,108.5071,Bình Thuận
Khe Sanh,16.6282,106.7388,Quảng Trị
Tô Hạp,12.0058,108.9487,Khánh Hòa
Thị Trấn Thông Nông,22.7841,105.9832,Cao Bằng
Mường Chiên,21.8424,103.5661,Sơn La
Yên Phú,22.7322,105.3715,Hà Giang
Pác Miầu,22.8297,105.4933,Cao Bằng
Tân Việt,22.8641,105.459,Cao Bằng
Củng Sơn,13.05,108.9789,Phú Yên
Sa Thầy,14.4138,107.7934,Kon Tum
Trới,21.0314,106.991,Quảng Ninh
Plei Kần,14.7049,107.6862,Kon Tum
Bộc Bố,22.6121,105.6671,Bắc Kạn
Bắc Yên,21.2463,104.4328,Sơn La
Đồng Xuân,13.3773,109.1081,Phú Yên
Thị Trấn Thất Khê,22.2553,106.4736,Lạng Sơn
Phủ Thông,22.2731,105.8794,Bắc Kạn
Thị Trấn Khánh Yên,22.0894,104.2515,Lào Cai
Thị Trấn Thanh Nhật,22.6875,106.67,Cao Bằng
Kon Dơng,14.0389,108.2501,Gia Lai
Hai Riêng,12.9791,108.8973,Phú Yên
Bằng Lũng,22.1578,105.5956,Bắc Kạn
Thị Trấn Bảo Lạc,22.9492,105.6805,Cao Bằng
Điện Biên Đông,21.2967,103.2201,Điện Biên
M’Đrăk,12.7462,108.7428,Đắk Lắk
Lắk,12.4109,108.1768,Đắk Lắk
Thị Trấn Sìn Hồ,22.3665,103.2344,Lai Châu
Phú Túc,13.1968,108.6904,Gia Lai
Tây Trà,15.1695,108.36,Quảng Ngãi
Kiên Lương,10.2862,104.6462,Kiến Giang
Quỳ Châu,19.5521,105.0939,Nghệ An
Bình Gia,21.9609,106.3645,Lạng Sơn
Thị Trấn Nguyên Bình,22.65,105.9598,Cao Bằng
Vũ Quang,18.3838,105.5059,Hà Tĩnh
Ba Tơ,14.7636,108.7322,Quảng Ngãi
Yến Lạc,22.2369,106.1815,Bắc Kạn
Trà My,15.3397,108.2207,Quảng Nam
Thị Trấn Đông Khê,22.4294,106.4319,Cao Bằng
Vân Tùng,22.4308,105.9969,Bắc Kạn
Quan Hóa,20.3848,105.1002,Thanh Hóa
Mù Cang Chải,21.8513,104.0895,Yên Bái
Thị Trấn Na Hang,22.3492,105.3824,Tuyên Quang
Lạc Dương,12.0041,108.4191,Lâm Đồng
Vĩnh Thạnh,14.1088,108.7838,Bình Định
Mường Lát,20.5292,104.6014,Thanh Hóa
K Bang,14.1445,108.5991,Gia Lai
Ia Kha,13.9624,107.8448,Gia Lai
Thị Trấn Trạm Tấu,21.4666,104.3797,Yên Bái
Quan Sơn,20.2591,104.9452,Thanh Hóa
Con Cuông,19.05,104.8812,Nghệ An
Ea Súp,13.0662,107.8855,Đắk Lắk
Khe Tre,16.1691,107.7179,Thừa Thiên-Huế
A Lưới,16.2723,107.2338,Thừa Thiên-Huế
An Lão,14.6124,108.8899,Bình Định
Quy Đạt,17.8046,105.9704,Quảng Bình
Kông Chro,13.7753,108.5256,Gia Lai
Mường Chà,21.7617,103.0978,Điện Biên
Krông Klang,16.6891,106.8874,Quảng Trị
Mường Xén,19.398,104.1524,Nghệ An
Kim Sơn,19.6041,104.919,Nghệ An
Đắk Glei,15.0864,107.7358,Kon Tum
Vân Canh,13.6195,108.9981,Bình Định
Khánh Vĩnh,12.2835,108.9047,Khánh Hòa
Sốp Cộp,20.9388,103.5971,Sơn La
Đắk Rve,14.5072,108.2473,Kon Tum
Prao,15.9244,107.6481,Quảng Nam
Hòa Bình,19.2639,104.4723,Nghệ An
Mường Nhé,22.1924,102.4579,Điện Biên
Bác Ái,11.841,108.9032,Ninh Thuận
Đình Lập,21.5463,107.0981,Lạng Sơn
Khâm Đức,15.4451,107.7934,Quảng Nam
Thị Trấn Mường Tè,22.3807,102.8201,Lai Châu
Kon Plông,14.6006,108.2909,Kon Tum
Thạnh Mỹ,15.7489,107.8368,Quảng Nam
